OBJECT_NAME,OBJECT_ID,EPOCH,MEAN_MOTION,ECCENTRICITY,INCLINATION,RA_OF_ASC_NODE,ARG_OF_PERICENTER,MEAN_ANOMALY,EPHEMERIS_TYPE,CLASSIFICATION_TYPE,NORAD_CAT_ID,ELEMENT_SET_NO,REV_AT_EPOCH,BSTAR,MEAN_MOTION_DOT,MEAN_MOTION_DDOT
RAISE-4,2025-297B,2026-05-25T22:05:55.112064,15.08820572,.00139115,97.5088,294.4552,111.7366,248.5345,0,U,67073,999,2453,.20973514E-3,.3244E-4,0