RAISE-4                 
1 67073U 25297B   26145.92077676  .00003244  00000+0  20974-3 0  9997
2 67073  97.5088 294.4552 0013911 111.7366 248.5345 15.08820572 24536
